#cP2022  3  4 12  0  0.00000000     576 d+D   IGb14 EXT AIUB
## 2199 475200.00000000   300.00000000 59642 0.5000000000000
+   69   G01G02G03G04G05G06G07G08G09G10G11G12G13G14G15G16G17
+        G18G19G20G21G22G23G24G25G26G28G29G30G31G32R01R02R03
+        R04R05R07R08R09R11R12R13R14R15R17R18R19R20R21R22R24
+        E01E02E10E11E12E13E14E15E18E21E25E26E27E30E31E33E34
+        E36  0  0  0  0  0  0  0  0  0  0  0  0  0  0  0  0
++         6  7  6  7  7  6  7  6  6  6  8  7  6  7  7  7  7
++         8  7  7  7  7  7  6  6  6  7  7  6  7  6  9  7  8
++         8  8  8  8  6  7  7  7  6  6  7  7  9 10  8  7  8
++         6  6  7  6  6  7  7  6  6  7  6  7  7  6  8  7  6
++         7  0  0  0  0  0  0  0  0  0  0  0  0  0  0  0  0
%c M  cc GPS ccc cccc cccc cccc cccc ccccc ccccc ccccc ccccc
%c cc cc ccc ccc cccc cccc cccc cccc ccccc ccccc ccccc ccccc
%f  1.2500000  1.025000000  0.00000000000  0.000000000000000
%f  0.0000000  0.000000000  0.00000000000  0.000000000000000
%i    0    0    0    0      0      0      0      0         0
%i    0    0    0    0      0      0      0      0         0
/* Center for Orbit Determination in Europe (CODE)          
/* Ultra-rapid GRE orbits starting year-day 22063 12 hour   
/* Observed/predicted: 24/24 hours (data used up to 064L)   
/* PCV:IGS14      OL/AL:FES2014b NONE     YN ORB:CoN CLK:BRD
*  2022  3  5 11 10  0.00000000
PG01 -17433.901600  -6291.090816  18878.437640    416.378930
PG02  14995.558520  21763.977775  -1037.117209   -651.847630
PG03 -18070.855024   5259.349871  18593.624948   -149.509992
PG04 -26562.617893   -607.861731  -1387.358721   -185.715240
PG05  11203.763526  10972.198116 -21581.076244    -73.586267
PG06   3359.577847  23312.848013  12266.845972    221.195068
PG07 -11228.116140  10839.437818 -21051.762005    314.299720
PG08 -24310.676004  -6429.715270  -9114.124002    -58.638097
PG09 -22487.660625   8123.018408 -11667.916525   -351.338912
PG10  10849.006310 -23685.077667   4436.361081   -337.841205
PG11  12644.961073  23274.719962  -2070.231808    -70.983901
PG12  17343.567701   -942.758641  19786.836313   -180.240846
PG13  18133.886602  13077.721037 -14615.048719    271.755456
PG14 -12445.180658  23152.420890   3520.757686    -90.718217
PG15  25021.395366   4104.408844  -8840.611131    -79.147676
PG16  -6861.614691 -14943.753297 -21025.899890   -477.027155
PG17  -9090.894429  13598.657362  21370.508993    583.206823
PG18  10884.571592 -11037.329823 -21557.454970    226.810619
PG19   -355.833899  14760.246656  21825.696147    126.981231
PG20   5383.683747  19637.237175 -17180.655013    516.436051
PG21 -19565.027203 -14328.589103  12219.046473    158.974494
PG22  -3243.154287 -15571.871170  21697.672226    222.825117
PG23  16610.644591 -19509.456968  -6814.926356     -4.161492
PG24  19559.564760   9304.447800  15342.164476    270.599192
PG25  18556.145916 -14051.345473  12244.929245    294.084273
PG26   1479.301232 -22944.880675 -13109.196895    188.310950
PG28  -6791.529043  23014.532099  12148.842229    387.191375
PG29  24158.441259  -4443.590617 -10225.095446   -487.671706
PG30  -5059.494259  18794.477614 -17889.467814   -516.984371
PG31  -4674.899349 -24001.608291   9640.736403   -167.539520
PG32   4105.088573 -15090.292942  21582.174665    -78.921951
PR01   -579.016257 -11805.567050  22610.504283      7.171902
PR02 -18535.401313   -730.832412  17586.526543    511.559134
PR03 -23533.904151   9698.637212   2118.032118     52.579307
PR04 -15414.224974  14369.438970 -14349.862976    130.515240
PR05   1163.838929  11202.373335 -22874.305641     88.815556
PR07  23380.678183 -10053.236279  -1244.764774     32.322005
PR08  15163.058844 -14514.964512  14533.921146    -63.852945
PR09   9913.618229   9649.547932  21426.998159     42.736455
PR11   6111.354975 -23017.886352   9158.165331     44.275493
PR12  -2414.455945 -23604.809741  -9313.638288     17.341672
PR13  -9315.122241 -10922.009603 -21105.527418    -19.056277
PR14 -10990.752774   9510.149372 -20954.284897     75.041750
PR15  -6120.498683  23298.916277  -8380.797377     97.768879
PR17 -17299.951618  -1984.192640  18636.785147    507.009086
PR18  -4054.479646   9891.760180  23172.988272    109.305102
PR19  10067.474356  16834.568562  16306.639859   -180.442800
PR20  20808.133747  14427.932863  -2854.802154    -66.124204
PR21  16430.261180   1072.364274 -19487.233387   -282.864696
PR22   3100.177142 -10479.720566 -23068.133215   -168.612494
PR24 -21304.042423 -13565.478422   3573.371994     82.975795
PE01 -19369.325518   9593.697652 -20232.778029   -590.874464
PE02  19364.446152  -9735.000666  20142.109994    284.248149
PE10   2197.661980  22969.055866  18536.540500   -498.749817
PE11  10711.715355  25633.547199  10180.809092   4306.879683
PE12  -6474.777176  16881.254232  23434.197090   4728.884369
PE13 -10308.329980 -25561.654455 -10803.418001    427.038807
PE14  27532.024589   6449.865245   4930.767057  -1767.349353
PE15   6466.270666 -16762.970071 -23516.663249    759.633990
PE18 -18832.141121 -14673.404074 -15312.271823  -1720.365477
PE21 -13357.483195 -10520.666940 -24234.581712   -720.742201
PE25  13198.858749  10804.952807  24191.732471   -565.727724
PE26 -21138.921078 -18636.367006   9070.820070   -876.668334
PE27    648.880760 -25771.644883 -14534.245202   -246.189025
PE30  14810.106735 -25191.173510   4633.473500   -323.687277
PE31 -14162.350026  25742.644345  -3638.569497   -493.078506
PE33 -19369.918208  -1895.778697  22314.567844   -458.857935
PE34  19281.570263   1640.494735 -22400.461291   -505.111782
PE36  20905.568176  19288.649431  -8157.598386   -340.958132
*  2022  3  5 11 15  0.00000000
PG01 -17753.213217  -6938.747605  18364.734638    416.376167
PG02  14950.210120  21848.322869    -78.961009   -651.847801
PG03 -17734.104953   4616.746774  19082.629809   -149.515142
PG04 -26593.496658   -691.225275   -436.731085   -185.714490
PG05  10803.446677  11674.763893 -21410.202136    -73.586676
PG06   3083.552131  22918.383762  13063.534858    221.198820
PG07 -11649.762352  10118.681390 -21193.291224    314.300402
PG08 -23952.270272  -6496.429955  -9967.625366    -58.638575
PG09 -22914.064523   8048.796091 -10857.820121   -351.338332
PG10  10992.118518 -23770.700731   3486.330510   -337.844513
PG11  12597.074908  23365.558327  -1119.593819    -70.980899
PG12  16925.209064   -284.407406  20164.727261   -180.242552
PG13  17572.759457  13046.138058 -15314.468260    271.757332
PG14 -12586.859515  23199.549703   2581.359340    -90.719411
PG15  24699.141180   4232.946432  -9675.866702    -79.146789
PG16  -6379.822622 -15557.169344 -20712.949813   -477.028520
PG17  -9863.894817  13522.144769  21069.376604    583.208324
PG18  11283.791472 -10316.994786 -21711.417840    226.808061
PG19  -1198.950018  14658.239466  21858.536423    126.982732
PG20   5088.881699  20211.123332 -16602.503174    516.436016
PG21 -19750.378721 -14701.542473  11425.554147    158.974665
PG22  -2445.673893 -15504.321104  21847.506587    222.826856
PG23  16541.984249 -19230.487223  -7719.096472     -4.162481
PG24  19823.560350   9831.456738  14685.482510    270.598306
PG25  18372.015909 -13581.217047  13019.233837    294.085842
PG26   1786.732594 -23332.460373 -12351.147192    188.311871
PG28  -7085.255506  23321.109896  11340.981953    387.188885
PG29  24521.638665  -4354.885304  -9359.678887   -487.673071
PG30  -5444.151036  18205.677499 -18384.115567   -516.985019
PG31  -4410.156503 -23695.950435  10487.937528   -167.540032
PG32   4915.741914 -15068.263533  21421.008655    -78.924100
PR01    242.777129 -12227.468685  22391.643973      7.171957
PR02 -17856.025077  -1007.573720  18262.705598    511.559723
PR03 -23415.748846   9698.940250   3181.113227     52.579664
PR04 -15915.368791  14652.476096 -13493.177372    130.515703
PR05    317.269103  11605.606365 -22700.810846     88.815728
PR07  23292.153056 -10065.253582  -2314.123516     32.322188
PR08  15667.846016 -14796.513656  13685.749975    -63.852974
PR09   9870.379791  10519.716914  21031.615398     42.737050
PR11   6039.534927 -22625.837974  10131.350674     44.275181
PR12  -2428.816860 -23970.379552  -8325.258083     17.341617
PR13  -9278.263585 -11777.537288 -20656.350325    -19.056332
PR14 -10911.598479   8644.131693 -21366.936006     75.041830
PR15  -6050.724392  22938.156818  -9366.955077     97.768799
PR17 -17940.513205  -2381.383156  17971.608094    507.009912
PR18  -4829.392322   9335.460091  23256.749705    109.305519
PR19   9550.560964  16379.240150  17063.887387   -180.443272
PR20  20930.557086  14424.662060  -1774.803292    -66.124570
PR21  17098.352714   1494.351445 -18875.683204   -282.865631
PR22   3866.009623  -9916.140255 -23198.476535   -168.613146
PR24 -21437.027613 -13593.172988   2508.410500     82.976364
PE01 -19108.611730   9035.102360 -20731.480792   -590.876661
PE02  19104.866664  -9177.769914  20645.653985    284.248831
PE10   1878.885900  22497.705780  19139.816529   -498.750459
PE11  10552.592845  25352.982398  11015.506578   4306.851851
PE12  -6891.830684  16305.744571  23721.625262   4728.878698
PE13 -10139.345798 -25265.115994 -11628.506442    427.038874
PE14  27189.465590   6465.505797   5714.175454  -1767.353268
PE15   6886.038507 -16185.535860 -23799.909278    759.633308
PE18 -18446.093551 -14776.006875 -16003.181049  -1720.352083
PE21 -13073.287569 -11189.809968 -24089.125550   -720.742888
PE25  12915.594999  11473.302698  24036.662362   -565.728134
PE26 -21328.613749 -18818.998127   8208.084261   -876.681528
PE27    796.945119 -26172.175100 -13791.715281   -246.191644
PE30  14725.375172 -25060.793306   5522.963540   -323.696488
PE31 -14087.624559  25640.878679  -4535.917922   -493.078677
PE33 -19791.497259  -2411.602243  21891.025751   -458.857809
PE34  19705.419662   2158.500161 -21983.799094   -505.112406
PE36  21084.339420  19445.422581  -7278.335856   -340.959700
EOF
